H1 CPF 01  gfz 2022 06 08 12  6591 terrasarx 
H2 0702601  6201 31698    2022 06 08 12 59 42 2022 06 13 00 00 42   120 1 1  0 0 0
H9
10 0 59742  65502.000000  0    6432658.585   -599251.032   2383807.476
10 0 59742  65622.000000  0    6046131.488   -743044.394   3208448.521
10 0 59742  65742.000000  0    5551558.742   -866136.369   3976594.152
10 0 59742  65862.000000  0    4958005.074   -964566.173   4674733.328
10 0 59742  65982.000000  0    4276334.101  -1034981.632   5290601.152
10 0 59742  66102.000000  0    3518998.913  -1074725.986   5813392.852
10 0 59742  66222.000000  0    2699805.692  -1081908.560   6233949.579
10 0 59742  66342.000000  0    1833655.156  -1055457.935   6544913.140
10 0 59742  66462.000000  0     936267.197   -995156.541   6740849.746
10 0 59742  66582.000000  0      23891.961   -901655.281   6818339.305
10 0 59742  66702.000000  0    -886984.851   -776468.474   6776029.982
10 0 59742  66822.000000  0   -1779938.481   -621949.582   6614659.599
10 0 59742  66942.000000  0   -2638899.656   -441247.256   6337043.407
10 0 59742  67062.000000  0   -3448442.931   -238242.836   5948029.103
10 0 59742  67182.000000  0   -4194065.929    -17470.147   5454418.420
10 0 59742  67302.000000  0   -4862454.350    215981.089   4864854.475
10 0 59742  67422.000000  0   -5441726.919    456576.148   4189675.830
10 0 59742  67542.000000  0   -5921655.396    698459.119   3440738.868
10 0 59742  67662.000000  0   -6293854.339    935586.834   2631211.964
10 0 59742  67782.000000  0   -6551937.667   1161870.049   1775343.345
10 0 59742  67902.000000  0   -6691636.965   1371317.993    888206.741
10 0 59742  68022.000000  0   -6710878.645   1558183.322    -14571.105
10 0 59742  68142.000000  0   -6609815.688   1717103.451   -917094.895
10 0 59742  68262.000000  0   -6390813.969   1843233.878  -1803489.421
10 0 59742  68382.000000  0   -6058395.313   1932371.322  -2658186.468
10 0 59742  68502.000000  0   -5619137.174   1981063.551  -3466205.586
10 0 59742  68622.000000  0   -5081531.266   1986701.717  -4213420.323
10 0 59742  68742.000000  0   -4455807.151   1947593.873  -4886803.908
10 0 59742  68862.000000  0   -3753725.950   1863018.544  -5474650.922
10 0 59742  68982.000000  0   -2988350.390   1733257.708  -5966771.635
10 0 59742  69102.000000  0   -2173796.451   1559608.629  -6354658.594
10 0 59742  69222.000000  0   -1324969.422   1344374.609  -6631622.728
10 0 59742  69342.000000  0    -457291.936   1090834.861  -6792896.400
10 0 59742  69462.000000  0     413571.146    803194.648  -6835705.829
10 0 59742  69582.000000  0    1271987.629    486517.087  -6759314.633
10 0 59742  69702.000000  0    2102633.304    146635.746  -6565036.650
10 0 59742  69822.000000  0    2890759.375   -209949.925  -6256214.982
10 0 59742  69942.000000  0    3622450.598   -576194.650  -5838170.920
10 0 59742  70062.000000  0    4284868.571   -944641.790  -5318120.365
10 0 59742  70182.000000  0    4866478.771  -1307570.114  -4705061.662
10 0 59742  70302.000000  0    5357257.872  -1657151.511  -4009631.288
10 0 59742  70422.000000  0    5748875.340  -1985615.284  -3243929.096
10 0 59742  70542.000000  0    6034845.840  -2285416.433  -2421314.989
10 0 59742  70662.000000  0    6210647.960  -2549404.229  -1556179.280
10 0 59742  70782.000000  0    6273805.634  -2770986.510   -663691.088
10 0 59742  70902.000000  0    6223930.409  -2944285.920    240470.875
10 0 59742  71022.000000  0    6062722.214  -3064283.855   1140399.891
10 0 59742  71142.000000  0    5793928.781  -3126948.250   2020250.086
10 0 59742  71262.000000  0    5423261.224  -3129341.357   2864525.035
10 0 59742  71382.000000  0    4958271.211  -3069705.001   3658358.550
10 0 59742  71502.000000  0    4408191.734  -2947519.831   4387781.983
10 0 59742  71622.000000  0    3783748.408  -2763539.920   5039972.807
10 0 59742  71742.000000  0    3096942.045  -2519801.052   5603481.711
10 0 59742  71862.000000  0    2360809.908  -2219600.999   6068430.376
10 0 59742  71982.000000  0    1589172.545  -1867454.587   6426679.716
10 0 59742  72102.000000  0     796370.197  -1469024.339   6671966.542
10 0 59742  72222.000000  0      -3006.236  -1031027.609   6800006.926
10 0 59742  72342.000000  0    -794383.906   -561121.920   6808565.736
10 0 59742  72462.000000  0   -1563472.448    -67771.022   6697492.622
10 0 59742  72582.000000  0   -2296520.844    439907.160   6468724.574
10 0 59742  72702.000000  0   -2980562.681    952308.258   6126254.653
10 0 59742  72822.000000  0   -3603646.503   1459522.010   5676067.136
10 0 59742  72942.000000  0   -4155048.149   1951523.090   5126039.574
10 0 59742  73062.000000  0   -4625461.552   2418369.451   4485811.510
10 0 59742  73182.000000  0   -5007162.885   2850404.264   3766619.618
10 0 59742  73302.000000  0   -5294144.009   3238456.417   2981103.149
10 0 59742  73422.000000  0   -5482213.651   3574035.798   2143082.851
10 0 59742  73542.000000  0   -5569063.727   3849519.774   1267315.775
10 0 59742  73662.000000  0   -5554297.575   4058324.326    369228.868
10 0 59742  73782.000000  0   -5439418.482   4195055.367   -535360.374
10 0 59742  73902.000000  0   -5227780.874   4255637.351  -1430531.004
10 0 59742  74022.000000  0   -4924503.761   4237415.765  -2300548.748
10 0 59742  74142.000000  0   -4536347.371   4139228.862  -3130150.968
10 0 59742  74262.000000  0   -4071558.594   3961448.520  -3904818.864
10 0 59742  74382.000000  0   -3539689.579   3705989.751  -4611031.741
10 0 59742  74502.000000  0   -2951394.856   3376289.800  -5236498.796
10 0 59742  74622.000000  0   -2318213.844   2977257.901  -5770364.852
10 0 59742  74742.000000  0   -1652341.765   2515197.852  -6203390.227
10 0 59742  74862.000000  0    -966392.940   1997703.215  -6528099.639
10 0 59742  74982.000000  0    -273163.574   1433529.885  -6738899.124
10 0 59742  75102.000000  0     414602.761    832447.662  -6832162.298
10 0 59742  75222.000000  0    1084443.193    205073.824  -6806286.709
10 0 59742  75342.000000  0    1724397.249   -437310.899  -6661718.968
10 0 59742  75462.000000  0    2323215.055  -1082960.361  -6400946.389
10 0 59742  75582.000000  0    2870551.241  -1719872.188  -6028459.240
10 0 59742  75702.000000  0    3357141.945  -2336005.198  -5550681.506
10 0 59742  75822.000000  0    3774963.705  -2919504.255  -4975872.586
10 0 59742  75942.000000  0    4117370.133  -3458928.879  -4313994.365
10 0 59742  76062.000000  0    4379201.543  -3943477.929  -3576548.213
10 0 59742  76182.000000  0    4556868.867  -4363208.385  -2776384.877
10 0 59742  76302.000000  0    4648408.656  -4709243.578  -1927486.194
10 0 59742  76422.000000  0    4653506.535  -4973965.523  -1044722.792
10 0 59742  76542.000000  0    4573486.973  -5151186.151   -143590.899
10 0 59742  76662.000000  0    4411269.530  -5236291.323    760065.353
10 0 59742  76782.000000  0    4171293.244  -5226355.034   1650340.403
10 0 59742  76902.000000  0    3859408.886  -5120218.832   2511556.924
10 0 59742  77022.000000  0    3482743.013  -4918535.999   3328549.448
10 0 59742  77142.000000  0    3049537.818  -4623779.155   4086938.587
10 0 59742  77262.000000  0    2568970.373  -4240210.221   4773388.420
10 0 59742  77382.000000  0    2050956.572  -3773814.658   5375842.549
10 0 59742  77502.000000  0    1505944.202  -3232202.195   5883734.663
10 0 59742  77622.000000  0     944699.479  -2624475.399   6288170.096
10 0 59742  77742.000000  0     378092.665  -1961071.124   6582075.228
10 0 59742  77862.000000  0    -183112.972  -1253577.589   6760314.311
10 0 59742  77982.000000  0    -728464.484   -514530.058   6819774.541
10 0 59742  78102.000000  0   -1248012.823    242812.436   6759417.011
10 0 59742  78222.000000  0   -1732493.749   1004704.581   6580293.546
10 0 59742  78342.000000  0   -2173492.638   1757163.380   6285529.423
10 0 59742  78462.000000  0   -2563591.301   2486223.914   5880272.318
10 0 59742  78582.000000  0   -2896493.995   3178199.055   5371608.126
10 0 59742  78702.000000  0   -3167131.749   3819938.592   4768443.764
10 0 59742  78822.000000  0   -3371742.673   4399083.538   4081357.175
10 0 59742  78942.000000  0   -3507925.796   4904310.395   3322416.014
10 0 59742  79062.000000  0   -3574667.178   5325559.893   2504967.007
10 0 59742  79182.000000  0   -3572337.414   5654243.806   1643399.202
10 0 59742  79302.000000  0   -3502660.289   5883424.362    752886.814
10 0 59742  79422.000000  0   -3368654.273   6007964.706   -150883.609
10 0 59742  79542.000000  0   -3174546.798   6024643.909  -1051999.028
10 0 59742  79662.000000  0   -2925663.933   5932232.186  -1934610.694
10 0 59742  79782.000000  0   -2628296.100   5731523.830  -2783222.876
10 0 59742  79902.000000  0   -2289545.828   5425329.153  -3582968.771
10 0 59742  80022.000000  0   -1917163.516   5018428.387  -4319873.017
10 0 59742  80142.000000  0   -1519373.173   4517485.609  -4981093.708
10 0 59742  80262.000000  0   -1104694.336   3930929.416  -5555139.411
10 0 59742  80382.000000  0    -681762.702   3268802.626  -6032061.279
10 0 59742  80502.000000  0    -259152.950   2542582.299  -6403615.970
10 0 59742  80622.000000  0     154791.583   1764975.783  -6663395.834
10 0 59742  80742.000000  0     552118.701    949698.221  -6806929.074
10 0 59742  80862.000000  0     925416.053    111233.063  -6831748.969
10 0 59742  80982.000000  0    1267945.896   -735420.801  -6737431.343
10 0 59742  81102.000000  0    1573763.171  -1575011.318  -6525599.433
10 0 59742  81222.000000  0    1837816.291  -2392300.304  -6199898.819
10 0 59742  81342.000000  0    2056030.160  -3172333.551  -5765942.448
10 0 59742  81462.000000  0    2225369.482  -3900712.516  -5231225.314
10 0 59742  81582.000000  0    2343881.344  -4563861.779  -4605004.667
10 0 59742  81702.000000  0    2410715.639  -5149283.990  -3898149.893
10 0 59742  81822.000000  0    2426123.251  -5645801.642  -3122964.424
10 0 59742  81942.000000  0    2391431.707  -6043779.981  -2292978.868
99
